[{"OBJECT_NAME":"QIANFAN-4","OBJECT_ID":"2024-140D","EPOCH":"2026-03-09T21:04:24.995712","MEAN_MOTION":13.5100067,"ECCENTRICITY":0.00115721,"INCLINATION":88.9712,"RA_OF_ASC_NODE":290.1387,"ARG_OF_PERICENTER":303.5402,"MEAN_ANOMALY":56.4643,"EPHEMERIS_TYPE":0,"CLASSIFICATION_TYPE":"U","NORAD_CAT_ID":60382,"ELEMENT_SET_NO":999,"REV_AT_EPOCH":7920,"BSTAR":9.7437554e-5,"MEAN_MOTION_DOT":7.5e-7,"MEAN_MOTION_DDOT":0},{"OBJECT_NAME":"OPS 4947 (TRANSIT 17)","OBJECT_ID":"1967-092A","EPOCH":"2026-03-09T21:34:02.915040","MEAN_MOTION":13.53478294,"ECCENTRICITY":0.0047373,"INCLINATION":89.2565,"RA_OF_ASC_NODE":17.7987,"ARG_OF_PERICENTER":345.3505,"MEAN_ANOMALY":72.9666,"EPHEMERIS_TYPE":0,"CLASSIFICATION_TYPE":"U","NORAD_CAT_ID":2965,"ELEMENT_SET_NO":999,"REV_AT_EPOCH":88276,"BSTAR":0.00026423544,"MEAN_MOTION_DOT":1.9e-6,"MEAN_MOTION_DDOT":0}]
